ONEWEB-0392             
1 50472U 21132D   25210.88341713  .00000013  00000+0 -99546-6 0  9995
2 50472  87.9035  69.9850 0001484  94.9082 265.2219 13.17650137175675
ONEWEB-0393             
1 50473U 21132E   25210.85655841  .00000027  00000+0  36711-4 0  9990
2 50473  87.9046  70.0091 0001630  87.9959 272.1359 13.17650096175661
ONEWEB-0394             
1 50474U 21132F   25210.77444454  .00000055  00000+0  10598-3 0  9993
2 50474  87.9125  39.4835 0001778  95.0200 265.1135 13.18688032179106
ONEWEB-0395             
1 50475U 21132G   25210.66058196 -.00000005  00000+0 -48710-4 0  9991
2 50475  87.8805  85.3688 0001430  80.0421 280.0868 13.11414123173442
ONEWEB-0396             
1 50476U 21132H   25211.07135421 -.00000031  00000+0 -11063-3 0  9994
2 50476  87.9124  39.4366 0001784  92.7668 267.3668 13.18684586180450
ONEWEB-0397             
1 50477U 21132J   25211.08620742  .00000006  00000+0 -16458-4 0  9996
2 50477  87.9122  39.4350 0001945  93.7312 266.4043 13.18685674180432
ONEWEB-0398             
1 50478U 21132K   25211.16244891  .00000181  00000+0  47468-3 0  9990
2 50478  87.8807  85.2314 0001525  66.4395 293.6893 13.11418672174683
ONEWEB-0399             
1 50479U 21132L   25211.14887683 -.00000393  00000+0 -11447-2 0  9995
2 50479  87.8807  85.2582 0001844  89.8898 270.2441 13.11418798174670
ONEWEB-0400             
1 50480U 21132M   25210.91302158 -.00000014  00000+0 -69055-4 0  9990
2 50480  87.9123  39.4598 0001635  84.0500 276.0818 13.18686773179132
ONEWEB-0401             
1 50481U 21132N   25210.80580135  .00000074  00000+0  15388-3 0  9995
2 50481  87.9125  39.4768 0002033  91.0270 269.1095 13.18687106179129
ONEWEB-0402             
1 50482U 21132P   25211.07302430  .00000008  00000+0 -13132-4 0  9990
2 50482  87.9123  39.4173 0002393  93.3213 266.8193 13.18686058180466
ONEWEB-0403             
1 50483U 21132Q   25210.94601625  .00000029  00000+0  39904-4 0  9991
2 50483  87.9125  39.4611 0001719  91.4166 268.7163 13.18686771179124
ONEWEB-0404             
1 50484U 21132R   25211.20652763 -.00000299  00000+0 -88060-3 0  9998
2 50484  87.8810  85.2510 0001508  89.5618 270.5683 13.11416330174766
ONEWEB-0405             
1 50485U 21132S   25210.88496713  .00000075  00000+0  15643-3 0  9990
2 50485  87.9123  39.4598 0002071  94.2745 265.8624 13.18687544179516
ONEWEB-0406             
1 50486U 21132T   25210.95095241  .00000016  00000+0  76472-5 0  9994
2 50486  87.9124  39.4690 0001259  94.4336 265.6940 13.18685178179156
ONEWEB-0407             
1 50487U 21132U   25210.94436491  .00000062  00000+0  12339-3 0  9991
2 50487  87.9123  39.4556 0001898  93.1275 267.0075 13.18685250179093
ONEWEB-0409             
1 50488U 21132V   25210.67075761 -.00000341  00000+0 -99870-3 0  9998
2 50488  87.8801  85.3192 0001437  81.0853 279.0437 13.11416092173312
