[{"OBJECT_NAME":"ONEWEB-0392","OBJECT_ID":"2021-132D","EPOCH":"2025-07-29T21:12:07.240032","MEAN_MOTION":13.17650137,"ECCENTRICITY":0.0001484,"INCLINATION":87.9035,"RA_OF_ASC_NODE":69.985,"ARG_OF_PERICENTER":94.9082,"MEAN_ANOMALY":265.2219,"EPHEMERIS_TYPE":0,"CLASSIFICATION_TYPE":"U","NORAD_CAT_ID":50472,"ELEMENT_SET_NO":999,"REV_AT_EPOCH":17567,"BSTAR":-9.9546e-7,"MEAN_MOTION_DOT":1.3e-7,"MEAN_MOTION_DDOT":0},{"OBJECT_NAME":"ONEWEB-0393","OBJECT_ID":"2021-132E","EPOCH":"2025-07-29T20:33:26.646624","MEAN_MOTION":13.17650096,"ECCENTRICITY":0.000163,"INCLINATION":87.9046,"RA_OF_ASC_NODE":70.0091,"ARG_OF_PERICENTER":87.9959,"MEAN_ANOMALY":272.1359,"EPHEMERIS_TYPE":0,"CLASSIFICATION_TYPE":"U","NORAD_CAT_ID":50473,"ELEMENT_SET_NO":999,"REV_AT_EPOCH":17566,"BSTAR":3.6711e-5,"MEAN_MOTION_DOT":2.7e-7,"MEAN_MOTION_DDOT":0},{"OBJECT_NAME":"ONEWEB-0394","OBJECT_ID":"2021-132F","EPOCH":"2025-07-29T18:35:12.008256","MEAN_MOTION":13.18688032,"ECCENTRICITY":0.0001778,"INCLINATION":87.9125,"RA_OF_ASC_NODE":39.4835,"ARG_OF_PERICENTER":95.02,"MEAN_ANOMALY":265.1135,"EPHEMERIS_TYPE":0,"CLASSIFICATION_TYPE":"U","NORAD_CAT_ID":50474,"ELEMENT_SET_NO":999,"REV_AT_EPOCH":17910,"BSTAR":0.00010598,"MEAN_MOTION_DOT":5.5e-7,"MEAN_MOTION_DDOT":0},{"OBJECT_NAME":"ONEWEB-0395","OBJECT_ID":"2021-132G","EPOCH":"2025-07-29T15:51:14.281344","MEAN_MOTION":13.11414123,"ECCENTRICITY":0.000143,"INCLINATION":87.8805,"RA_OF_ASC_NODE":85.3688,"ARG_OF_PERICENTER":80.0421,"MEAN_ANOMALY":280.0868,"EPHEMERIS_TYPE":0,"CLASSIFICATION_TYPE":"U","NORAD_CAT_ID":50475,"ELEMENT_SET_NO":999,"REV_AT_EPOCH":17344,"BSTAR":-4.871e-5,"MEAN_MOTION_DOT":-5.0e-8,"MEAN_MOTION_DDOT":0},{"OBJECT_NAME":"ONEWEB-0396","OBJECT_ID":"2021-132H","EPOCH":"2025-07-30T01:42:45.003744","MEAN_MOTION":13.18684586,"ECCENTRICITY":0.0001784,"INCLINATION":87.9124,"RA_OF_ASC_NODE":39.4366,"ARG_OF_PERICENTER":92.7668,"MEAN_ANOMALY":267.3668,"EPHEMERIS_TYPE":0,"CLASSIFICATION_TYPE":"U","NORAD_CAT_ID":50476,"ELEMENT_SET_NO":999,"REV_AT_EPOCH":18045,"BSTAR":-0.00011063,"MEAN_MOTION_DOT":-3.1e-7,"MEAN_MOTION_DDOT":0},{"OBJECT_NAME":"ONEWEB-0397","OBJECT_ID":"2021-132J","EPOCH":"2025-07-30T02:04:08.321088","MEAN_MOTION":13.18685674,"ECCENTRICITY":0.0001945,"INCLINATION":87.9122,"RA_OF_ASC_NODE":39.435,"ARG_OF_PERICENTER":93.7312,"MEAN_ANOMALY":266.4043,"EPHEMERIS_TYPE":0,"CLASSIFICATION_TYPE":"U","NORAD_CAT_ID":50477,"ELEMENT_SET_NO":999,"REV_AT_EPOCH":18043,"BSTAR":-1.6458e-5,"MEAN_MOTION_DOT":6.0e-8,"MEAN_MOTION_DDOT":0},{"OBJECT_NAME":"ONEWEB-0398","OBJECT_ID":"2021-132K","EPOCH":"2025-07-30T03:53:55.585824","MEAN_MOTION":13.11418672,"ECCENTRICITY":0.0001525,"INCLINATION":87.8807,"RA_OF_ASC_NODE":85.2314,"ARG_OF_PERICENTER":66.4395,"MEAN_ANOMALY":293.6893,"EPHEMERIS_TYPE":0,"CLASSIFICATION_TYPE":"U","NORAD_CAT_ID":50478,"ELEMENT_SET_NO":999,"REV_AT_EPOCH":17468,"BSTAR":0.00047468,"MEAN_MOTION_DOT":1.81e-6,"MEAN_MOTION_DDOT":0},{"OBJECT_NAME":"ONEWEB-0399","OBJECT_ID":"2021-132L","EPOCH":"2025-07-30T03:34:22.958112","MEAN_MOTION":13.11418798,"ECCENTRICITY":0.0001844,"INCLINATION":87.8807,"RA_OF_ASC_NODE":85.2582,"ARG_OF_PERICENTER":89.8898,"MEAN_ANOMALY":270.2441,"EPHEMERIS_TYPE":0,"CLASSIFICATION_TYPE":"U","NORAD_CAT_ID":50479,"ELEMENT_SET_NO":999,"REV_AT_EPOCH":17467,"BSTAR":-0.0011447,"MEAN_MOTION_DOT":-3.93e-6,"MEAN_MOTION_DDOT":0},{"OBJECT_NAME":"ONEWEB-0400","OBJECT_ID":"2021-132M","EPOCH":"2025-07-29T21:54:45.064512","MEAN_MOTION":13.18686773,"ECCENTRICITY":0.0001635,"INCLINATION":87.9123,"RA_OF_ASC_NODE":39.4598,"ARG_OF_PERICENTER":84.05,"MEAN_ANOMALY":276.0818,"EPHEMERIS_TYPE":0,"CLASSIFICATION_TYPE":"U","NORAD_CAT_ID":50480,"ELEMENT_SET_NO":999,"REV_AT_EPOCH":17913,"BSTAR":-6.9055e-5,"MEAN_MOTION_DOT":-1.4e-7,"MEAN_MOTION_DDOT":0},{"OBJECT_NAME":"ONEWEB-0401","OBJECT_ID":"2021-132N","EPOCH":"2025-07-29T19:20:21.236640","MEAN_MOTION":13.18687106,"ECCENTRICITY":0.0002033,"INCLINATION":87.9125,"RA_OF_ASC_NODE":39.4768,"ARG_OF_PERICENTER":91.027,"MEAN_ANOMALY":269.1095,"EPHEMERIS_TYPE":0,"CLASSIFICATION_TYPE":"U","NORAD_CAT_ID":50481,"ELEMENT_SET_NO":999,"REV_AT_EPOCH":17912,"BSTAR":0.00015388,"MEAN_MOTION_DOT":7.4e-7,"MEAN_MOTION_DDOT":0},{"OBJECT_NAME":"ONEWEB-0402","OBJECT_ID":"2021-132P","EPOCH":"2025-07-30T01:45:09.299520","MEAN_MOTION":13.18686058,"ECCENTRICITY":0.0002393,"INCLINATION":87.9123,"RA_OF_ASC_NODE":39.4173,"ARG_OF_PERICENTER":93.3213,"MEAN_ANOMALY":266.8193,"EPHEMERIS_TYPE":0,"CLASSIFICATION_TYPE":"U","NORAD_CAT_ID":50482,"ELEMENT_SET_NO":999,"REV_AT_EPOCH":18046,"BSTAR":-1.3132e-5,"MEAN_MOTION_DOT":8.0e-8,"MEAN_MOTION_DDOT":0},{"OBJECT_NAME":"ONEWEB-0403","OBJECT_ID":"2021-132Q","EPOCH":"2025-07-29T22:42:15.804000","MEAN_MOTION":13.18686771,"ECCENTRICITY":0.0001719,"INCLINATION":87.9125,"RA_OF_ASC_NODE":39.4611,"ARG_OF_PERICENTER":91.4166,"MEAN_ANOMALY":268.7163,"EPHEMERIS_TYPE":0,"CLASSIFICATION_TYPE":"U","NORAD_CAT_ID":50483,"ELEMENT_SET_NO":999,"REV_AT_EPOCH":17912,"BSTAR":3.9904e-5,"MEAN_MOTION_DOT":2.9e-7,"MEAN_MOTION_DDOT":0},{"OBJECT_NAME":"ONEWEB-0404","OBJECT_ID":"2021-132R","EPOCH":"2025-07-30T04:57:23.987232","MEAN_MOTION":13.1141633,"ECCENTRICITY":0.0001508,"INCLINATION":87.881,"RA_OF_ASC_NODE":85.251,"ARG_OF_PERICENTER":89.5618,"MEAN_ANOMALY":270.5683,"EPHEMERIS_TYPE":0,"CLASSIFICATION_TYPE":"U","NORAD_CAT_ID":50484,"ELEMENT_SET_NO":999,"REV_AT_EPOCH":17476,"BSTAR":-0.0008806,"MEAN_MOTION_DOT":-2.99e-6,"MEAN_MOTION_DDOT":0},{"OBJECT_NAME":"ONEWEB-0405","OBJECT_ID":"2021-132S","EPOCH":"2025-07-29T21:14:21.160032","MEAN_MOTION":13.18687544,"ECCENTRICITY":0.0002071,"INCLINATION":87.9123,"RA_OF_ASC_NODE":39.4598,"ARG_OF_PERICENTER":94.2745,"MEAN_ANOMALY":265.8624,"EPHEMERIS_TYPE":0,"CLASSIFICATION_TYPE":"U","NORAD_CAT_ID":50485,"ELEMENT_SET_NO":999,"REV_AT_EPOCH":17951,"BSTAR":0.00015643,"MEAN_MOTION_DOT":7.5e-7,"MEAN_MOTION_DDOT":0},{"OBJECT_NAME":"ONEWEB-0406","OBJECT_ID":"2021-132T","EPOCH":"2025-07-29T22:49:22.288224","MEAN_MOTION":13.18685178,"ECCENTRICITY":0.0001259,"INCLINATION":87.9124,"RA_OF_ASC_NODE":39.469,"ARG_OF_PERICENTER":94.4336,"MEAN_ANOMALY":265.694,"EPHEMERIS_TYPE":0,"CLASSIFICATION_TYPE":"U","NORAD_CAT_ID":50486,"ELEMENT_SET_NO":999,"REV_AT_EPOCH":17915,"BSTAR":7.6472e-6,"MEAN_MOTION_DOT":1.6e-7,"MEAN_MOTION_DDOT":0},{"OBJECT_NAME":"ONEWEB-0407","OBJECT_ID":"2021-132U","EPOCH":"2025-07-29T22:39:53.128224","MEAN_MOTION":13.1868525,"ECCENTRICITY":0.0001898,"INCLINATION":87.9123,"RA_OF_ASC_NODE":39.4556,"ARG_OF_PERICENTER":93.1275,"MEAN_ANOMALY":267.0075,"EPHEMERIS_TYPE":0,"CLASSIFICATION_TYPE":"U","NORAD_CAT_ID":50487,"ELEMENT_SET_NO":999,"REV_AT_EPOCH":17909,"BSTAR":0.00012339,"MEAN_MOTION_DOT":6.2e-7,"MEAN_MOTION_DDOT":0},{"OBJECT_NAME":"ONEWEB-0409","OBJECT_ID":"2021-132V","EPOCH":"2025-07-29T16:05:53.457504","MEAN_MOTION":13.11416092,"ECCENTRICITY":0.0001437,"INCLINATION":87.8801,"RA_OF_ASC_NODE":85.3192,"ARG_OF_PERICENTER":81.0853,"MEAN_ANOMALY":279.0437,"EPHEMERIS_TYPE":0,"CLASSIFICATION_TYPE":"U","NORAD_CAT_ID":50488,"ELEMENT_SET_NO":999,"REV_AT_EPOCH":17331,"BSTAR":-0.0009987,"MEAN_MOTION_DOT":-3.41e-6,"MEAN_MOTION_DDOT":0}]
